{
"type": "FeatureCollection",
"name": "Houston_Enclaves",
"crs": { "type": "name", "properties": { "name": "urn:ogc:def:crs:OGC:1.3:CRS84" } },
"features": [
{ "type": "Feature", "properties": { "name": "Bellaire", "type": "Enclave" }, "geometry": { "type": "MultiPolygon", "coordinates": [ [ [ [ -95.484572, 29.699194 ], [ -95.48247, 29.700239 ], [ -95.48041, 29.701246 ], [ -95.480381, 29.700245 ], [ -95.480379, 29.700035 ], [ -95.480373, 29.699284 ], [ -95.480355, 29.698324 ], [ -95.479771, 29.69833 ], [ -95.4788, 29.698333 ], [ -95.47781, 29.698345 ], [ -95.476833, 29.698358 ], [ -95.476195, 29.698359 ], [ -95.475006, 29.698377 ], [ -95.474247, 29.698389 ], [ -95.474078, 29.698385 ], [ -95.474095, 29.699298 ], [ -95.474093, 29.700198 ], [ -95.474098, 29.701116 ], [ -95.474123, 29.701981 ], [ -95.474157, 29.704423 ], [ -95.474855, 29.704083 ], [ -95.475043, 29.703992 ], [ -95.475246, 29.703893 ], [ -95.476255, 29.703396 ], [ -95.476254, 29.703813 ], [ -95.476263, 29.704555 ], [ -95.476265, 29.704742 ], [ -95.476276, 29.705603 ], [ -95.476281, 29.706442 ], [ -95.476286, 29.707432 ], [ -95.475476, 29.707427 ], [ -95.47522, 29.707427 ], [ -95.474662, 29.707438 ], [ -95.474189, 29.707446 ], [ -95.472512, 29.707476 ], [ -95.472525, 29.707879 ], [ -95.472546, 29.708763 ], [ -95.472553, 29.709283 ], [ -95.472543, 29.709678 ], [ -95.472557, 29.710576 ], [ -95.472572, 29.71111 ], [ -95.472576, 29.711592 ], [ -95.472579, 29.712066 ], [ -95.472575, 29.712485 ], [ -95.472594, 29.712904 ], [ -95.472573, 29.712908 ], [ -95.47217, 29.712933 ], [ -95.470422, 29.712945 ], [ -95.469908, 29.71295 ], [ -95.469597, 29.71295 ], [ -95.469314, 29.71295 ], [ -95.468503, 29.712967 ], [ -95.46799, 29.712979 ], [ -95.468023, 29.714785 ], [ -95.468024, 29.716066 ], [ -95.468052, 29.716591 ], [ -95.468067, 29.717544 ], [ -95.468079, 29.718268 ], [ -95.468088, 29.718832 ], [ -95.468089, 29.719064 ], [ -95.46809, 29.719716 ], [ -95.468097, 29.720212 ], [ -95.467614, 29.720212 ], [ -95.466647, 29.720232 ], [ -95.465924, 29.720241 ], [ -95.465602, 29.720245 ], [ -95.465479, 29.720247 ], [ -95.465167, 29.720251 ], [ -95.464875, 29.720256 ], [ -95.463956, 29.720255 ], [ -95.463962, 29.720695 ], [ -95.463965, 29.721132 ], [ -95.463978, 29.722151 ], [ -95.464032, 29.724511 ], [ -95.464017, 29.724769 ], [ -95.464036, 29.725477 ], [ -95.464031, 29.725526 ], [ -95.463294, 29.725578 ], [ -95.463152, 29.725589 ], [ -95.462806, 29.725608 ], [ -95.462467, 29.725629 ], [ -95.462306, 29.725641 ], [ -95.462041, 29.725662 ], [ -95.461987, 29.725666 ], [ -95.461795, 29.725683 ], [ -95.46166, 29.725695 ], [ -95.461506, 29.72571 ], [ -95.461051, 29.725751 ], [ -95.460967, 29.725759 ], [ -95.460628, 29.72579 ], [ -95.460389, 29.725811 ], [ -95.460212, 29.725827 ], [ -95.460054, 29.725841 ], [ -95.459589, 29.725883 ], [ -95.459598, 29.725828 ], [ -95.45965, 29.725511 ], [ -95.459762, 29.72483 ], [ -95.459812, 29.724401 ], [ -95.459806, 29.723711 ], [ -95.459804, 29.723366 ], [ -95.459799, 29.722795 ], [ -95.459797, 29.722573 ], [ -95.459787, 29.721584 ], [ -95.459774, 29.720308 ], [ -95.455649, 29.720333 ], [ -95.454579, 29.720357 ], [ -95.45402, 29.720372 ], [ -95.451999, 29.720387 ], [ -95.451483, 29.720399 ], [ -95.451514, 29.721515 ], [ -95.451525, 29.721626 ], [ -95.451506, 29.722117 ], [ -95.451513, 29.722668 ], [ -95.451395, 29.72267 ], [ -95.451029, 29.722675 ], [ -95.450676, 29.722679 ], [ -95.450561, 29.72268 ], [ -95.450217, 29.722684 ], [ -95.44965, 29.722691 ], [ -95.448219, 29.722707 ], [ -95.44826, 29.721677 ], [ -95.448305, 29.720571 ], [ -95.448425, 29.717573 ], [ -95.448424, 29.716349 ], [ -95.448424, 29.715825 ], [ -95.448424, 29.714983 ], [ -95.44839, 29.714133 ], [ -95.44824, 29.712563 ], [ -95.447683, 29.705917 ], [ -95.44771, 29.704127 ], [ -95.447576, 29.703375 ], [ -95.447501, 29.702888 ], [ -95.447492, 29.702504 ], [ -95.447459, 29.700891 ], [ -95.447422, 29.699176 ], [ -95.447419, 29.699021 ], [ -95.44738, 29.69719 ], [ -95.447349, 29.695732 ], [ -95.447319, 29.694264 ], [ -95.447299, 29.693551 ], [ -95.447296, 29.693401 ], [ -95.447286, 29.69294 ], [ -95.447284, 29.692913 ], [ -95.447277, 29.692602 ], [ -95.447273, 29.692422 ], [ -95.447267, 29.692154 ], [ -95.447252, 29.691402 ], [ -95.447244, 29.69112 ], [ -95.447239, 29.690922 ], [ -95.447238, 29.690885 ], [ -95.447237, 29.690831 ], [ -95.447236, 29.690778 ], [ -95.447234, 29.690696 ], [ -95.44723, 29.690542 ], [ -95.447228, 29.690419 ], [ -95.447221, 29.69015 ], [ -95.447224, 29.689963 ], [ -95.447269, 29.689964 ], [ -95.44738, 29.68996 ], [ -95.44802, 29.689937 ], [ -95.449079, 29.689879 ], [ -95.451038, 29.689306 ], [ -95.451063, 29.689874 ], [ -95.451067, 29.690027 ], [ -95.45107, 29.690153 ], [ -95.451539, 29.69015 ], [ -95.458549, 29.690101 ], [ -95.458881, 29.69009 ], [ -95.4591, 29.690083 ], [ -95.45945, 29.690075 ], [ -95.459874, 29.690071 ], [ -95.460182, 29.690068 ], [ -95.460483, 29.690063 ], [ -95.460893, 29.690059 ], [ -95.46135, 29.690056 ], [ -95.461712, 29.690052 ], [ -95.462198, 29.690047 ], [ -95.462513, 29.690044 ], [ -95.462828, 29.69004 ], [ -95.463154, 29.690037 ], [ -95.463457, 29.690034 ], [ -95.463786, 29.69004 ], [ -95.464087, 29.690027 ], [ -95.464402, 29.690024 ], [ -95.464727, 29.69002 ], [ -95.465052, 29.690008 ], [ -95.465247, 29.690006 ], [ -95.465455, 29.690006 ], [ -95.465664, 29.690005 ], [ -95.465879, 29.690005 ], [ -95.466093, 29.690005 ], [ -95.466305, 29.690003 ], [ -95.466517, 29.69 ], [ -95.466741, 29.689998 ], [ -95.466939, 29.689996 ], [ -95.467151, 29.689994 ], [ -95.467388, 29.689993 ], [ -95.467583, 29.689995 ], [ -95.46772, 29.689997 ], [ -95.467873, 29.689996 ], [ -95.468084, 29.689994 ], [ -95.46829, 29.689992 ], [ -95.468495, 29.689989 ], [ -95.4687, 29.689988 ], [ -95.468904, 29.689986 ], [ -95.469109, 29.689984 ], [ -95.469314, 29.689983 ], [ -95.469519, 29.689981 ], [ -95.469757, 29.689979 ], [ -95.469927, 29.689978 ], [ -95.470133, 29.689976 ], [ -95.470364, 29.689974 ], [ -95.470543, 29.689972 ], [ -95.470748, 29.689971 ], [ -95.470996, 29.689969 ], [ -95.471171, 29.689967 ], [ -95.471376, 29.689949 ], [ -95.471564, 29.689965 ], [ -95.471793, 29.689962 ], [ -95.471869, 29.689965 ], [ -95.471979, 29.68996 ], [ -95.472197, 29.689957 ], [ -95.472403, 29.689953 ], [ -95.472608, 29.68995 ], [ -95.472811, 29.689946 ], [ -95.473017, 29.689943 ], [ -95.473222, 29.68994 ], [ -95.473427, 29.689936 ], [ -95.473631, 29.689932 ], [ -95.473835, 29.689929 ], [ -95.474041, 29.689926 ], [ -95.474246, 29.689922 ], [ -95.47446, 29.689918 ], [ -95.474654, 29.689914 ], [ -95.474857, 29.68991 ], [ -95.475061, 29.689906 ], [ -95.475268, 29.689901 ], [ -95.475471, 29.689897 ], [ -95.475672, 29.689894 ], [ -95.475907, 29.689889 ], [ -95.475917, 29.690333 ], [ -95.475918, 29.690372 ], [ -95.475922, 29.690684 ], [ -95.475928, 29.690997 ], [ -95.475936, 29.691115 ], [ -95.476081, 29.691115 ], [ -95.476312, 29.691061 ], [ -95.479398, 29.691033 ], [ -95.480249, 29.691019 ], [ -95.481644, 29.691011 ], [ -95.481883, 29.691043 ], [ -95.484455, 29.69103 ], [ -95.484465, 29.692217 ], [ -95.484493, 29.693456 ], [ -95.48452, 29.694631 ], [ -95.484509, 29.695853 ], [ -95.484533, 29.697082 ], [ -95.484548, 29.697846 ], [ -95.484556, 29.698279 ], [ -95.484572, 29.699194 ] ] ] ] } },
{ "type": "Feature", "properties": { "name": "Bunker Hill Village", "type": "Enclave" }, "geometry": { "type": "MultiPolygon", "coordinates": [ [ [ [ -95.546413, 29.759976 ], [ -95.546381, 29.759995 ], [ -95.546241, 29.760094 ], [ -95.546134, 29.760177 ], [ -95.546035, 29.760326 ], [ -95.545999, 29.760399 ], [ -95.54594, 29.760515 ], [ -95.54592, 29.760644 ], [ -95.54591, 29.760818 ], [ -95.545929, 29.761727 ], [ -95.545926, 29.762139 ], [ -95.545941, 29.762612 ], [ -95.545965, 29.762749 ], [ -95.546027, 29.762888 ], [ -95.546115, 29.763046 ], [ -95.546221, 29.763141 ], [ -95.546245, 29.764312 ], [ -95.546167, 29.764699 ], [ -95.546093, 29.765049 ], [ -95.545906, 29.765177 ], [ -95.545742, 29.765232 ], [ -95.54547, 29.765235 ], [ -95.544855, 29.765247 ], [ -95.544359, 29.765229 ], [ -95.542081, 29.765192 ], [ -95.54068, 29.765217 ], [ -95.540608, 29.765202 ], [ -95.540547, 29.765169 ], [ -95.540521, 29.765129 ], [ -95.540466, 29.765141 ], [ -95.540106, 29.765266 ], [ -95.540038, 29.765291 ], [ -95.539901, 29.765339 ], [ -95.539848, 29.765358 ], [ -95.539849, 29.765509 ], [ -95.539851, 29.765923 ], [ -95.539858, 29.766745 ], [ -95.539865, 29.767563 ], [ -95.539871, 29.768249 ], [ -95.53987, 29.768913 ], [ -95.539863, 29.769565 ], [ -95.539869, 29.769956 ], [ -95.539876, 29.77041 ], [ -95.53988, 29.770548 ], [ -95.539878, 29.770688 ], [ -95.539879, 29.77074 ], [ -95.539885, 29.770945 ], [ -95.53989, 29.771401 ], [ -95.539892, 29.771549 ], [ -95.539888, 29.771877 ], [ -95.539888, 29.771915 ], [ -95.53989, 29.772308 ], [ -95.539889, 29.772798 ], [ -95.539892, 29.772957 ], [ -95.539896, 29.773089 ], [ -95.539898, 29.773148 ], [ -95.539943, 29.773148 ], [ -95.540011, 29.773149 ], [ -95.54021, 29.77315 ], [ -95.540216, 29.773979 ], [ -95.540221, 29.774866 ], [ -95.54023, 29.775813 ], [ -95.540067, 29.77581 ], [ -95.539981, 29.775808 ], [ -95.539839, 29.775805 ], [ -95.539531, 29.77582 ], [ -95.538419, 29.775823 ], [ -95.538356, 29.775831 ], [ -95.538121, 29.775786 ], [ -95.537846, 29.775761 ], [ -95.537584, 29.775756 ], [ -95.537579, 29.775568 ], [ -95.537579, 29.775262 ], [ -95.537581, 29.775052 ], [ -95.537577, 29.774587 ], [ -95.537575, 29.774259 ], [ -95.537579, 29.773906 ], [ -95.537574, 29.77353 ], [ -95.537568, 29.773153 ], [ -95.537468, 29.773154 ], [ -95.537436, 29.773154 ], [ -95.537341, 29.773155 ], [ -95.537275, 29.773154 ], [ -95.536484, 29.773163 ], [ -95.535921, 29.773169 ], [ -95.535333, 29.773178 ], [ -95.53509, 29.773181 ], [ -95.533886, 29.77319 ], [ -95.532947, 29.773204 ], [ -95.5328, 29.773204 ], [ -95.53206, 29.773212 ], [ -95.531641, 29.77322 ], [ -95.531598, 29.773223 ], [ -95.531557, 29.773226 ], [ -95.530593, 29.773235 ], [ -95.529878, 29.773247 ], [ -95.528908, 29.773243 ], [ -95.52806, 29.773241 ], [ -95.527391, 29.773242 ], [ -95.526629, 29.773256 ], [ -95.526674, 29.776909 ], [ -95.526575, 29.776909 ], [ -95.525519, 29.777028 ], [ -95.525453, 29.777021 ], [ -95.524421, 29.776929 ], [ -95.524122, 29.774029 ], [ -95.52393, 29.774037 ], [ -95.523421, 29.774031 ], [ -95.523279, 29.773319 ], [ -95.522645, 29.773329 ], [ -95.522443, 29.773328 ], [ -95.522432, 29.772792 ], [ -95.522435, 29.772588 ], [ -95.522419, 29.771795 ], [ -95.522396, 29.771412 ], [ -95.522396, 29.771393 ], [ -95.522396, 29.770753 ], [ -95.52238, 29.770355 ], [ -95.522376, 29.770246 ], [ -95.522368, 29.769667 ], [ -95.522339, 29.7687 ], [ -95.522312, 29.767591 ], [ -95.522307, 29.767418 ], [ -95.522281, 29.766563 ], [ -95.522258, 29.765567 ], [ -95.522231, 29.764778 ], [ -95.522221, 29.764488 ], [ -95.522215, 29.763955 ], [ -95.522247, 29.76312 ], [ -95.522303, 29.762538 ], [ -95.522343, 29.761931 ], [ -95.522344, 29.761912 ], [ -95.522381, 29.76153 ], [ -95.522409, 29.760896 ], [ -95.522479, 29.75976 ], [ -95.522546, 29.758751 ], [ -95.522568, 29.758385 ], [ -95.522601, 29.757834 ], [ -95.522668, 29.75671 ], [ -95.522753, 29.75541 ], [ -95.522797, 29.754766 ], [ -95.522778, 29.752405 ], [ -95.522741, 29.75108 ], [ -95.52346, 29.751093 ], [ -95.523692, 29.751093 ], [ -95.52433, 29.751095 ], [ -95.525924, 29.751127 ], [ -95.525946, 29.751934 ], [ -95.525956, 29.7534 ], [ -95.525985, 29.753544 ], [ -95.526107, 29.753742 ], [ -95.526146, 29.753807 ], [ -95.526552, 29.754 ], [ -95.527837, 29.754009 ], [ -95.528474, 29.754022 ], [ -95.52962, 29.754027 ], [ -95.529617, 29.754875 ], [ -95.529641, 29.755954 ], [ -95.529651, 29.756485 ], [ -95.529661, 29.757052 ], [ -95.529664, 29.75723 ], [ -95.529672, 29.757605 ], [ -95.529676, 29.758031 ], [ -95.529665, 29.758361 ], [ -95.52966, 29.758505 ], [ -95.529674, 29.759093 ], [ -95.530382, 29.759057 ], [ -95.530603, 29.759055 ], [ -95.531633, 29.759046 ], [ -95.532778, 29.759043 ], [ -95.533914, 29.759016 ], [ -95.534111, 29.759017 ], [ -95.535257, 29.759006 ], [ -95.537063, 29.758987 ], [ -95.537222, 29.759001 ], [ -95.537648, 29.758998 ], [ -95.5379, 29.758992 ], [ -95.538148, 29.758993 ], [ -95.538511, 29.758996 ], [ -95.539809, 29.759001 ], [ -95.540532, 29.759005 ], [ -95.540532, 29.758928 ], [ -95.541592, 29.758925 ], [ -95.542262, 29.758919 ], [ -95.542396, 29.758932 ], [ -95.542538, 29.758966 ], [ -95.54265, 29.759013 ], [ -95.542838, 29.759066 ], [ -95.543024, 29.759092 ], [ -95.543764, 29.759098 ], [ -95.544233, 29.759093 ], [ -95.544321, 29.759032 ], [ -95.544701, 29.759033 ], [ -95.544852, 29.759034 ], [ -95.545009, 29.759033 ], [ -95.545078, 29.759034 ], [ -95.545289, 29.759034 ], [ -95.545554, 29.759035 ], [ -95.545821, 29.759034 ], [ -95.546132, 29.759034 ], [ -95.546208, 29.759031 ], [ -95.546254, 29.759086 ], [ -95.546368, 29.759339 ], [ -95.546413, 29.759432 ], [ -95.546413, 29.759976 ] ] ] ] } },
{ "type": "Feature", "properties": { "name": "Southside Place", "type": "Enclave" }, "geometry": { "type": "MultiPolygon", "coordinates": [ [ [ [ -95.446187, 29.705934 ], [ -95.446065, 29.705933 ], [ -95.445519, 29.705933 ], [ -95.445425, 29.705933 ], [ -95.445099, 29.705944 ], [ -95.443773, 29.705937 ], [ -95.442786, 29.705946 ], [ -95.441959, 29.705959 ], [ -95.441576, 29.705964 ], [ -95.440985, 29.705972 ], [ -95.440202, 29.705985 ], [ -95.439604, 29.705989 ], [ -95.437765, 29.706014 ], [ -95.437833, 29.707219 ], [ -95.437879, 29.708021 ], [ -95.437886, 29.708727 ], [ -95.437864, 29.709435 ], [ -95.437869, 29.710139 ], [ -95.437892, 29.710865 ], [ -95.437912, 29.711579 ], [ -95.437901, 29.712281 ], [ -95.437921, 29.712984 ], [ -95.43791, 29.713776 ], [ -95.437938, 29.714592 ], [ -95.437677, 29.714669 ], [ -95.437349, 29.714846 ], [ -95.433826, 29.714904 ], [ -95.433221, 29.714903 ], [ -95.433133, 29.714903 ], [ -95.433066, 29.712726 ], [ -95.433035, 29.711858 ], [ -95.433041, 29.711567 ], [ -95.433028, 29.710945 ], [ -95.433002, 29.70974 ], [ -95.433083, 29.709133 ], [ -95.433121, 29.709053 ], [ -95.43318, 29.708925 ], [ -95.43311, 29.707891 ], [ -95.43308, 29.707442 ], [ -95.433087, 29.70703 ], [ -95.433092, 29.706767 ], [ -95.433194, 29.70604 ], [ -95.433135, 29.706041 ], [ -95.433125, 29.705232 ], [ -95.433119, 29.704863 ], [ -95.433117, 29.704754 ], [ -95.433781, 29.704745 ], [ -95.43396, 29.704742 ], [ -95.434122, 29.704745 ], [ -95.43435, 29.704743 ], [ -95.43471, 29.704741 ], [ -95.435121, 29.704739 ], [ -95.435576, 29.704736 ], [ -95.435575, 29.704692 ], [ -95.435577, 29.704589 ], [ -95.437167, 29.704579 ], [ -95.440157, 29.704558 ], [ -95.440159, 29.70464 ], [ -95.442781, 29.70461 ], [ -95.442874, 29.704606 ], [ -95.443091, 29.704611 ], [ -95.443319, 29.704609 ], [ -95.443531, 29.704606 ], [ -95.443751, 29.704603 ], [ -95.443802, 29.704603 ], [ -95.443971, 29.704601 ], [ -95.444192, 29.704598 ], [ -95.444344, 29.704596 ], [ -95.444412, 29.704595 ], [ -95.444635, 29.704592 ], [ -95.444853, 29.704584 ], [ -95.44509, 29.704587 ], [ -95.445259, 29.704585 ], [ -95.445296, 29.704584 ], [ -95.445388, 29.704585 ], [ -95.445514, 29.704582 ], [ -95.445601, 29.704581 ], [ -95.445694, 29.70458 ], [ -95.445737, 29.704579 ], [ -95.445993, 29.704576 ], [ -95.44616, 29.704576 ], [ -95.446188, 29.705752 ], [ -95.446187, 29.705934 ] ] ] ] } },
{ "type": "Feature", "properties": { "name": "Spring Valley Village", "type": "Enclave" }, "geometry": { "type": "MultiPolygon", "coordinates": [ [ [ [ -95.520318, 29.78891 ], [ -95.520232, 29.788911 ], [ -95.52016, 29.788911 ], [ -95.519813, 29.788911 ], [ -95.519457, 29.788911 ], [ -95.519101, 29.788911 ], [ -95.518744, 29.788911 ], [ -95.518522, 29.788911 ], [ -95.518387, 29.788911 ], [ -95.518025, 29.788912 ], [ -95.517675, 29.788915 ], [ -95.517315, 29.788919 ], [ -95.517216, 29.788921 ], [ -95.516714, 29.788926 ], [ -95.516689, 29.788939 ], [ -95.516639, 29.788964 ], [ -95.516623, 29.788972 ], [ -95.516603, 29.788982 ], [ -95.516568, 29.788999 ], [ -95.516536, 29.789015 ], [ -95.516241, 29.789175 ], [ -95.516109, 29.789247 ], [ -95.515942, 29.789338 ], [ -95.515697, 29.789468 ], [ -95.515671, 29.789481 ], [ -95.515603, 29.789509 ], [ -95.515529, 29.789531 ], [ -95.515493, 29.789538 ], [ -95.515475, 29.789542 ], [ -95.515464, 29.789544 ], [ -95.515411, 29.789551 ], [ -95.515296, 29.789561 ], [ -95.515247, 29.789566 ], [ -95.515227, 29.789568 ], [ -95.515078, 29.789582 ], [ -95.51464, 29.789622 ], [ -95.514526, 29.789633 ], [ -95.51445, 29.78964 ], [ -95.514436, 29.789641 ], [ -95.514363, 29.789648 ], [ -95.51404, 29.789678 ], [ -95.513994, 29.789682 ], [ -95.513937, 29.789689 ], [ -95.513936, 29.789791 ], [ -95.513932, 29.790755 ], [ -95.513933, 29.791348 ], [ -95.513917, 29.791885 ], [ -95.513923, 29.792145 ], [ -95.513916, 29.79251 ], [ -95.513921, 29.792742 ], [ -95.51392, 29.793056 ], [ -95.513919, 29.793272 ], [ -95.513919, 29.793396 ], [ -95.513919, 29.793458 ], [ -95.513919, 29.793486 ], [ -95.513917, 29.794307 ], [ -95.513352, 29.794314 ], [ -95.513319, 29.794314 ], [ -95.512983, 29.794312 ], [ -95.512808, 29.794311 ], [ -95.512805, 29.794703 ], [ -95.51282, 29.795139 ], [ -95.512809, 29.796101 ], [ -95.512813, 29.796481 ], [ -95.512805, 29.796989 ], [ -95.512805, 29.797088 ], [ -95.512805, 29.797274 ], [ -95.512105, 29.797279 ], [ -95.511574, 29.797261 ], [ -95.511372, 29.797258 ], [ -95.510112, 29.797239 ], [ -95.510127, 29.798221 ], [ -95.51013, 29.79838 ], [ -95.510127, 29.798854 ], [ -95.51006, 29.798778 ], [ -95.510012, 29.798724 ], [ -95.509697, 29.798455 ], [ -95.509539, 29.798353 ], [ -95.508929, 29.797959 ], [ -95.508765, 29.797899 ], [ -95.508462, 29.797822 ], [ -95.508116, 29.797662 ], [ -95.507315, 29.797316 ], [ -95.507227, 29.797288 ], [ -95.507063, 29.797261 ], [ -95.506937, 29.797271 ], [ -95.506777, 29.797271 ], [ -95.506761, 29.797271 ], [ -95.506313, 29.797161 ], [ -95.506206, 29.797123 ], [ -95.506156, 29.797095 ], [ -95.506118, 29.797062 ], [ -95.506093, 29.797013 ], [ -95.505791, 29.796166 ], [ -95.505753, 29.796116 ], [ -95.505696, 29.796078 ], [ -95.505476, 29.79599 ], [ -95.505375, 29.795979 ], [ -95.505255, 29.796006 ], [ -95.505141, 29.796043 ], [ -95.504845, 29.796138 ], [ -95.504574, 29.796248 ], [ -95.504416, 29.796297 ], [ -95.504196, 29.796325 ], [ -95.503843, 29.796308 ], [ -95.503717, 29.796347 ], [ -95.503528, 29.796424 ], [ -95.503118, 29.79666 ], [ -95.502929, 29.79672 ], [ -95.502714, 29.796769 ], [ -95.502588, 29.796786 ], [ -95.502235, 29.796709 ], [ -95.501763, 29.796582 ], [ -95.501733, 29.796572 ], [ -95.501227, 29.796401 ], [ -95.500754, 29.796263 ], [ -95.500559, 29.79618 ], [ -95.500429, 29.796144 ], [ -95.500061, 29.796043 ], [ -95.500002, 29.796005 ], [ -95.499706, 29.795961 ], [ -95.499151, 29.795918 ], [ -95.498874, 29.795852 ], [ -95.49859, 29.795747 ], [ -95.498514, 29.795698 ], [ -95.498158, 29.795657 ], [ -95.49797, 29.795633 ], [ -95.497885, 29.795627 ], [ -95.497795, 29.795611 ], [ -95.497734, 29.795595 ], [ -95.497615, 29.795551 ], [ -95.497563, 29.795525 ], [ -95.497375, 29.79539 ], [ -95.497135, 29.795156 ], [ -95.496974, 29.794996 ], [ -95.496849, 29.794845 ], [ -95.496748, 29.794726 ], [ -95.496668, 29.794635 ], [ -95.496522, 29.794475 ], [ -95.496256, 29.794369 ], [ -95.495994, 29.794236 ], [ -95.495735, 29.794119 ], [ -95.495609, 29.794047 ], [ -95.495543, 29.794013 ], [ -95.495487, 29.793962 ], [ -95.495436, 29.793934 ], [ -95.495368, 29.793836 ], [ -95.495317, 29.793786 ], [ -95.495248, 29.793753 ], [ -95.495172, 29.793731 ], [ -95.494782, 29.793726 ], [ -95.494063, 29.793677 ], [ -95.493855, 29.79365 ], [ -95.493704, 29.793595 ], [ -95.492909, 29.79293 ], [ -95.492531, 29.792738 ], [ -95.49243, 29.792666 ], [ -95.492392, 29.792639 ], [ -95.49236, 29.792199 ], [ -95.492316, 29.792067 ], [ -95.49219, 29.791908 ], [ -95.492152, 29.791836 ], [ -95.492158, 29.791715 ], [ -95.492209, 29.791594 ], [ -95.492316, 29.791424 ], [ -95.492379, 29.791176 ], [ -95.492372, 29.791061 ], [ -95.492347, 29.790956 ], [ -95.492284, 29.790786 ], [ -95.492101, 29.790594 ], [ -95.491723, 29.790407 ], [ -95.491313, 29.790237 ], [ -95.490821, 29.789923 ], [ -95.490733, 29.789896 ], [ -95.49067, 29.789863 ], [ -95.490619, 29.789731 ], [ -95.490619, 29.789704 ], [ -95.490767, 29.789382 ], [ -95.490814, 29.78928 ], [ -95.490865, 29.789033 ], [ -95.490959, 29.788939 ], [ -95.491003, 29.788912 ], [ -95.491085, 29.788884 ], [ -95.491129, 29.788818 ], [ -95.491098, 29.788741 ], [ -95.491035, 29.788648 ], [ -95.491035, 29.788549 ], [ -95.491079, 29.788516 ], [ -95.491161, 29.788417 ], [ -95.491324, 29.788175 ], [ -95.491343, 29.787955 ], [ -95.491343, 29.78784 ], [ -95.491324, 29.787768 ], [ -95.491248, 29.787719 ], [ -95.491085, 29.787664 ], [ -95.490996, 29.78768 ], [ -95.490933, 29.787757 ], [ -95.490902, 29.787779 ], [ -95.490872, 29.787783 ], [ -95.490831, 29.787728 ], [ -95.490744, 29.787686 ], [ -95.49065, 29.787659 ], [ -95.490618, 29.787598 ], [ -95.490637, 29.787538 ], [ -95.49058, 29.787466 ], [ -95.490435, 29.787439 ], [ -95.490265, 29.787477 ], [ -95.490076, 29.787582 ], [ -95.490019, 29.787593 ], [ -95.489862, 29.787494 ], [ -95.489792, 29.787346 ], [ -95.489736, 29.787252 ], [ -95.489647, 29.787208 ], [ -95.48954, 29.787214 ], [ -95.48937, 29.78717 ], [ -95.489345, 29.787087 ], [ -95.489313, 29.787038 ], [ -95.489187, 29.786999 ], [ -95.48896, 29.786983 ], [ -95.48891, 29.786945 ], [ -95.48891, 29.786884 ], [ -95.488859, 29.786791 ], [ -95.488746, 29.78667 ], [ -95.488733, 29.786472 ], [ -95.488664, 29.786334 ], [ -95.488582, 29.786224 ], [ -95.488506, 29.786175 ], [ -95.488455, 29.78617 ], [ -95.48838, 29.786192 ], [ -95.488317, 29.78623 ], [ -95.488241, 29.786219 ], [ -95.488203, 29.786175 ], [ -95.488197, 29.786131 ], [ -95.488153, 29.786054 ], [ -95.488128, 29.785977 ], [ -95.488077, 29.785917 ], [ -95.488014, 29.785862 ], [ -95.487812, 29.785719 ], [ -95.487713, 29.785683 ], [ -95.48763, 29.785653 ], [ -95.487296, 29.785637 ], [ -95.487106, 29.785582 ], [ -95.486955, 29.785521 ], [ -95.486873, 29.785445 ], [ -95.486842, 29.785357 ], [ -95.486861, 29.785258 ], [ -95.486797, 29.785142 ], [ -95.486583, 29.784906 ], [ -95.486432, 29.784702 ], [ -95.486407, 29.784603 ], [ -95.486387, 29.784527 ], [ -95.486383, 29.784342 ], [ -95.486381, 29.784268 ], [ -95.486384, 29.784158 ], [ -95.486386, 29.784064 ], [ -95.48639, 29.783923 ], [ -95.486393, 29.783839 ], [ -95.486395, 29.783741 ], [ -95.4864, 29.783576 ], [ -95.487627, 29.783507 ], [ -95.488086, 29.783519 ], [ -95.488219, 29.783523 ], [ -95.48823, 29.783757 ], [ -95.488237, 29.783848 ], [ -95.488242, 29.784066 ], [ -95.488248, 29.784339 ], [ -95.494415, 29.784313 ], [ -95.496433, 29.784395 ], [ -95.497275, 29.784442 ], [ -95.49847, 29.78449 ], [ -95.498614, 29.784498 ], [ -95.498848, 29.784505 ], [ -95.499039, 29.784513 ], [ -95.499264, 29.784531 ], [ -95.499741, 29.784567 ], [ -95.500529, 29.784619 ], [ -95.50128, 29.784656 ], [ -95.501847, 29.784658 ], [ -95.505818, 29.784734 ], [ -95.506271, 29.784743 ], [ -95.508349, 29.784756 ], [ -95.509562, 29.784743 ], [ -95.511424, 29.784664 ], [ -95.512709, 29.784625 ], [ -95.51359, 29.78462 ], [ -95.513963, 29.784618 ], [ -95.514179, 29.784582 ], [ -95.514222, 29.784577 ], [ -95.514268, 29.784572 ], [ -95.514458, 29.784553 ], [ -95.514521, 29.784552 ], [ -95.516506, 29.784528 ], [ -95.517158, 29.784543 ], [ -95.519659, 29.784548 ], [ -95.520125, 29.784558 ], [ -95.520128, 29.784891 ], [ -95.520129, 29.784969 ], [ -95.52013, 29.785028 ], [ -95.520124, 29.785133 ], [ -95.520087, 29.78558 ], [ -95.519997, 29.787976 ], [ -95.52019, 29.788458 ], [ -95.520307, 29.788824 ], [ -95.520318, 29.788857 ], [ -95.520318, 29.78891 ] ] ] ] } },
{ "type": "Feature", "properties": { "name": "West University Place", "type": "Enclave" }, "geometry": { "type": "MultiPolygon", "coordinates": [ [ [ [ -95.447384, 29.724531 ], [ -95.447182, 29.72452 ], [ -95.444631, 29.72456 ], [ -95.443116, 29.724593 ], [ -95.443107, 29.723957 ], [ -95.443098, 29.723871 ], [ -95.443088, 29.723163 ], [ -95.443073, 29.722456 ], [ -95.443065, 29.721739 ], [ -95.443042, 29.721022 ], [ -95.443029, 29.720345 ], [ -95.442223, 29.720755 ], [ -95.441269, 29.721242 ], [ -95.440301, 29.721738 ], [ -95.440165, 29.721803 ], [ -95.439235, 29.722253 ], [ -95.438971, 29.722394 ], [ -95.438375, 29.722716 ], [ -95.437539, 29.723117 ], [ -95.436371, 29.723731 ], [ -95.436253, 29.723774 ], [ -95.433535, 29.725157 ], [ -95.433364, 29.725244 ], [ -95.432343, 29.725283 ], [ -95.431226, 29.72529 ], [ -95.431137, 29.725289 ], [ -95.430961, 29.725288 ], [ -95.430106, 29.725301 ], [ -95.428971, 29.725293 ], [ -95.42777, 29.725335 ], [ -95.42712, 29.725336 ], [ -95.426581, 29.725355 ], [ -95.426367, 29.725356 ], [ -95.424832, 29.725367 ], [ -95.422117, 29.725428 ], [ -95.420618, 29.72543 ], [ -95.418581, 29.72549 ], [ -95.418556, 29.724647 ], [ -95.418544, 29.723905 ], [ -95.418518, 29.723301 ], [ -95.418519, 29.723101 ], [ -95.418534, 29.722286 ], [ -95.418513, 29.721457 ], [ -95.418507, 29.721132 ], [ -95.418501, 29.720645 ], [ -95.418508, 29.720449 ], [ -95.418496, 29.719835 ], [ -95.418487, 29.719344 ], [ -95.418481, 29.719033 ], [ -95.418461, 29.718248 ], [ -95.418453, 29.717437 ], [ -95.418431, 29.716645 ], [ -95.418424, 29.715985 ], [ -95.418418, 29.71585 ], [ -95.418399, 29.715054 ], [ -95.418403, 29.714619 ], [ -95.418406, 29.7143 ], [ -95.418399, 29.714192 ], [ -95.418391, 29.71341 ], [ -95.418369, 29.712578 ], [ -95.418355, 29.711832 ], [ -95.418351, 29.711467 ], [ -95.418358, 29.711117 ], [ -95.418316, 29.710928 ], [ -95.418342, 29.710402 ], [ -95.418317, 29.710229 ], [ -95.418317, 29.709586 ], [ -95.418316, 29.709456 ], [ -95.418324, 29.708759 ], [ -95.418303, 29.708662 ], [ -95.418294, 29.707895 ], [ -95.418283, 29.707063 ], [ -95.418288, 29.706164 ], [ -95.42, 29.706148 ], [ -95.420091, 29.706153 ], [ -95.420788, 29.706147 ], [ -95.422659, 29.706131 ], [ -95.422947, 29.706129 ], [ -95.423018, 29.706129 ], [ -95.424487, 29.706109 ], [ -95.425931, 29.706091 ], [ -95.426389, 29.7061 ], [ -95.426447, 29.706102 ], [ -95.426658, 29.7061 ], [ -95.427448, 29.706093 ], [ -95.427991, 29.706078 ], [ -95.428635, 29.706087 ], [ -95.429237, 29.706076 ], [ -95.429772, 29.70607 ], [ -95.430122, 29.706068 ], [ -95.430897, 29.706063 ], [ -95.431075, 29.706058 ], [ -95.432021, 29.706065 ], [ -95.432697, 29.706051 ], [ -95.433042, 29.706031 ], [ -95.433103, 29.706041 ], [ -95.433135, 29.706041 ], [ -95.433194, 29.70604 ], [ -95.433092, 29.706767 ], [ -95.433087, 29.70703 ], [ -95.43308, 29.707442 ], [ -95.43311, 29.707891 ], [ -95.43318, 29.708925 ], [ -95.433121, 29.709053 ], [ -95.433083, 29.709133 ], [ -95.433002, 29.70974 ], [ -95.433028, 29.710945 ], [ -95.433041, 29.711567 ], [ -95.433035, 29.711858 ], [ -95.433066, 29.712726 ], [ -95.433133, 29.714903 ], [ -95.433221, 29.714903 ], [ -95.433826, 29.714904 ], [ -95.437349, 29.714846 ], [ -95.437677, 29.714669 ], [ -95.437938, 29.714592 ], [ -95.43791, 29.713776 ], [ -95.437921, 29.712984 ], [ -95.437901, 29.712281 ], [ -95.437912, 29.711579 ], [ -95.437892, 29.710865 ], [ -95.437869, 29.710139 ], [ -95.437864, 29.709435 ], [ -95.437886, 29.708727 ], [ -95.437879, 29.708021 ], [ -95.437833, 29.707219 ], [ -95.437765, 29.706014 ], [ -95.439604, 29.705989 ], [ -95.440202, 29.705985 ], [ -95.440985, 29.705972 ], [ -95.441576, 29.705964 ], [ -95.441959, 29.705959 ], [ -95.442786, 29.705946 ], [ -95.443773, 29.705937 ], [ -95.445099, 29.705944 ], [ -95.445425, 29.705933 ], [ -95.445519, 29.705933 ], [ -95.446065, 29.705933 ], [ -95.446187, 29.705934 ], [ -95.446424, 29.705935 ], [ -95.446837, 29.705928 ], [ -95.446978, 29.710048 ], [ -95.44707, 29.712382 ], [ -95.447165, 29.715227 ], [ -95.447231, 29.718199 ], [ -95.447384, 29.724531 ] ] ] ] } },
{ "type": "Feature", "properties": { "name": "Galena Park", "type": "Enclave" }, "geometry": { "type": "MultiPolygon", "coordinates": [ [ [ [ -95.25429, 29.757556 ], [ -95.25429, 29.757596 ], [ -95.253798, 29.757603 ], [ -95.253149, 29.757605 ], [ -95.251625, 29.757609 ], [ -95.251707, 29.759697 ], [ -95.251507, 29.759678 ], [ -95.24719, 29.759429 ], [ -95.243283, 29.759602 ], [ -95.24198, 29.758791 ], [ -95.240357, 29.758837 ], [ -95.233565, 29.759032 ], [ -95.232966, 29.759139 ], [ -95.232516, 29.759219 ], [ -95.231326, 29.759226 ], [ -95.229374, 29.759301 ], [ -95.227486, 29.759326 ], [ -95.22433, 29.759427 ], [ -95.223319, 29.759447 ], [ -95.223298, 29.759447 ], [ -95.223293, 29.7595 ], [ -95.222507, 29.759519 ], [ -95.219265, 29.7596 ], [ -95.219234, 29.759597 ], [ -95.219195, 29.759601 ], [ -95.218274, 29.759624 ], [ -95.217729, 29.759647 ], [ -95.215664, 29.759713 ], [ -95.215318, 29.759724 ], [ -95.213751, 29.759763 ], [ -95.213645, 29.759766 ], [ -95.213562, 29.759768 ], [ -95.213187, 29.759778 ], [ -95.213077, 29.759786 ], [ -95.212898, 29.759783 ], [ -95.212785, 29.759788 ], [ -95.212304, 29.7598 ], [ -95.212133, 29.759806 ], [ -95.211832, 29.759812 ], [ -95.211827, 29.759652 ], [ -95.211513, 29.759627 ], [ -95.211326, 29.757681 ], [ -95.211606, 29.757682 ], [ -95.211663, 29.759541 ], [ -95.211823, 29.759537 ], [ -95.211822, 29.759522 ], [ -95.211767, 29.75778 ], [ -95.211764, 29.757686 ], [ -95.211758, 29.757572 ], [ -95.211702, 29.756872 ], [ -95.211666, 29.756052 ], [ -95.21166, 29.755903 ], [ -95.211639, 29.755447 ], [ -95.211626, 29.755111 ], [ -95.211555, 29.753534 ], [ -95.211505, 29.75235 ], [ -95.211414, 29.750119 ], [ -95.211422, 29.74971 ], [ -95.210938, 29.741292 ], [ -95.210911, 29.740828 ], [ -95.211107, 29.739826 ], [ -95.21113, 29.739712 ], [ -95.211152, 29.739597 ], [ -95.211695, 29.739355 ], [ -95.212272, 29.738952 ], [ -95.212306, 29.738928 ], [ -95.21261, 29.738553 ], [ -95.212573, 29.738379 ], [ -95.212674, 29.737922 ], [ -95.212983, 29.737693 ], [ -95.213385, 29.737622 ], [ -95.213959, 29.737641 ], [ -95.214014, 29.737527 ], [ -95.214166, 29.737211 ], [ -95.214295, 29.736943 ], [ -95.214615, 29.736278 ], [ -95.214701, 29.736036 ], [ -95.214859, 29.735772 ], [ -95.214882, 29.735722 ], [ -95.214997, 29.735399 ], [ -95.215043, 29.735317 ], [ -95.215076, 29.735257 ], [ -95.215269, 29.734863 ], [ -95.215463, 29.734482 ], [ -95.215551, 29.734309 ], [ -95.216087, 29.733217 ], [ -95.216074, 29.733055 ], [ -95.216049, 29.732727 ], [ -95.216054, 29.732584 ], [ -95.216045, 29.732429 ], [ -95.216048, 29.732349 ], [ -95.216058, 29.732086 ], [ -95.216072, 29.732018 ], [ -95.216127, 29.731889 ], [ -95.21618, 29.731802 ], [ -95.216261, 29.731707 ], [ -95.216351, 29.731629 ], [ -95.216479, 29.731554 ], [ -95.216615, 29.731482 ], [ -95.216769, 29.731441 ], [ -95.216898, 29.731427 ], [ -95.217038, 29.731422 ], [ -95.217374, 29.731423 ], [ -95.219087, 29.73143 ], [ -95.219907, 29.73163 ], [ -95.219973, 29.731646 ], [ -95.220906, 29.73184 ], [ -95.221115, 29.731883 ], [ -95.221538, 29.73201 ], [ -95.221901, 29.732118 ], [ -95.22229, 29.732197 ], [ -95.222527, 29.732245 ], [ -95.2227, 29.732265 ], [ -95.223154, 29.732318 ], [ -95.223506, 29.732358 ], [ -95.22362, 29.732378 ], [ -95.223741, 29.732384 ], [ -95.224361, 29.732539 ], [ -95.22516, 29.73252 ], [ -95.225734, 29.732508 ], [ -95.226066, 29.732482 ], [ -95.226295, 29.73248 ], [ -95.226864, 29.732473 ], [ -95.227952, 29.732301 ], [ -95.228596, 29.732174 ], [ -95.228722, 29.732149 ], [ -95.229022, 29.732054 ], [ -95.229148, 29.731976 ], [ -95.229645, 29.731904 ], [ -95.230006, 29.731851 ], [ -95.230079, 29.731841 ], [ -95.230774, 29.731735 ], [ -95.231949, 29.731556 ], [ -95.232129, 29.731506 ], [ -95.232223, 29.731482 ], [ -95.232559, 29.731385 ], [ -95.232657, 29.731356 ], [ -95.232775, 29.731323 ], [ -95.23325, 29.731159 ], [ -95.233646, 29.731023 ], [ -95.233964, 29.730898 ], [ -95.234345, 29.730749 ], [ -95.234649, 29.730618 ], [ -95.234902, 29.730509 ], [ -95.235079, 29.730422 ], [ -95.235175, 29.730374 ], [ -95.23524, 29.730348 ], [ -95.235369, 29.730297 ], [ -95.235465, 29.730259 ], [ -95.235588, 29.730211 ], [ -95.235656, 29.730183 ], [ -95.235814, 29.730121 ], [ -95.236119, 29.730001 ], [ -95.236373, 29.7299 ], [ -95.236739, 29.729756 ], [ -95.236885, 29.729685 ], [ -95.237062, 29.7296 ], [ -95.237694, 29.729294 ], [ -95.238251, 29.729002 ], [ -95.238689, 29.728752 ], [ -95.238801, 29.728687 ], [ -95.239062, 29.728537 ], [ -95.239224, 29.728439 ], [ -95.239309, 29.728388 ], [ -95.239409, 29.728328 ], [ -95.23972, 29.728141 ], [ -95.239759, 29.728118 ], [ -95.239818, 29.728082 ], [ -95.239964, 29.727994 ], [ -95.240034, 29.727952 ], [ -95.240058, 29.727937 ], [ -95.240216, 29.727839 ], [ -95.240304, 29.72778 ], [ -95.24091, 29.727373 ], [ -95.2412, 29.727178 ], [ -95.241255, 29.727141 ], [ -95.241359, 29.727071 ], [ -95.243543, 29.7265 ], [ -95.243671, 29.726572 ], [ -95.243784, 29.72663 ], [ -95.243998, 29.726756 ], [ -95.24434, 29.726948 ], [ -95.244554, 29.727221 ], [ -95.244771, 29.727486 ], [ -95.24499, 29.727744 ], [ -95.245231, 29.728018 ], [ -95.245468, 29.728276 ], [ -95.245652, 29.728474 ], [ -95.245843, 29.728667 ], [ -95.246039, 29.728856 ], [ -95.246241, 29.72904 ], [ -95.24645, 29.729219 ], [ -95.246664, 29.729393 ], [ -95.246883, 29.729562 ], [ -95.247108, 29.729725 ], [ -95.247337, 29.729883 ], [ -95.247572, 29.730035 ], [ -95.247823, 29.730224 ], [ -95.24802, 29.730372 ], [ -95.248092, 29.73044 ], [ -95.248156, 29.730495 ], [ -95.24822, 29.730562 ], [ -95.2483, 29.730635 ], [ -95.248377, 29.730706 ], [ -95.248526, 29.730832 ], [ -95.24861, 29.73091 ], [ -95.248658, 29.730952 ], [ -95.249134, 29.731335 ], [ -95.249236, 29.73141 ], [ -95.250454, 29.732256 ], [ -95.251182, 29.732188 ], [ -95.251342, 29.732172 ], [ -95.252518, 29.732104 ], [ -95.253585, 29.731988 ], [ -95.253606, 29.732755 ], [ -95.253601, 29.733143 ], [ -95.253596, 29.733439 ], [ -95.253622, 29.73412 ], [ -95.25364, 29.734805 ], [ -95.253664, 29.735493 ], [ -95.253677, 29.736187 ], [ -95.2537, 29.736879 ], [ -95.253708, 29.737562 ], [ -95.253724, 29.73825 ], [ -95.253705, 29.738955 ], [ -95.253765, 29.739618 ], [ -95.253782, 29.740319 ], [ -95.253804, 29.740993 ], [ -95.253823, 29.741692 ], [ -95.25385, 29.742377 ], [ -95.253907, 29.74444 ], [ -95.253944, 29.746189 ], [ -95.253991, 29.746188 ], [ -95.253951, 29.746478 ], [ -95.254073, 29.74994 ], [ -95.254304, 29.757496 ], [ -95.25429, 29.757556 ] ] ] ] } },
{ "type": "Feature", "properties": { "name": "Hedwig Village", "type": "Enclave" }, "geometry": { "type": "MultiPolygon", "coordinates": [ [ [ [ -95.531778, 29.783813 ], [ -95.531278, 29.783815 ], [ -95.530598, 29.783818 ], [ -95.530472, 29.783819 ], [ -95.52962, 29.783824 ], [ -95.527701, 29.78383 ], [ -95.527461, 29.783831 ], [ -95.525841, 29.783806 ], [ -95.524878, 29.783786 ], [ -95.523984, 29.783778 ], [ -95.523521, 29.783773 ], [ -95.523155, 29.783764 ], [ -95.522237, 29.78375 ], [ -95.521873, 29.783744 ], [ -95.521706, 29.783744 ], [ -95.52126, 29.783734 ], [ -95.520786, 29.783733 ], [ -95.520123, 29.783742 ], [ -95.520124, 29.783982 ], [ -95.520124, 29.784057 ], [ -95.520124, 29.78415 ], [ -95.520123, 29.78434 ], [ -95.520125, 29.784558 ], [ -95.519659, 29.784548 ], [ -95.517158, 29.784543 ], [ -95.516506, 29.784528 ], [ -95.514521, 29.784552 ], [ -95.514458, 29.784553 ], [ -95.514268, 29.784572 ], [ -95.514222, 29.784577 ], [ -95.514179, 29.784582 ], [ -95.513963, 29.784618 ], [ -95.51359, 29.78462 ], [ -95.512709, 29.784625 ], [ -95.511424, 29.784664 ], [ -95.509562, 29.784743 ], [ -95.508349, 29.784756 ], [ -95.506271, 29.784743 ], [ -95.505818, 29.784734 ], [ -95.501847, 29.784658 ], [ -95.501842, 29.784476 ], [ -95.501841, 29.784437 ], [ -95.501837, 29.784343 ], [ -95.501839, 29.784277 ], [ -95.501842, 29.784195 ], [ -95.501845, 29.784118 ], [ -95.501849, 29.784012 ], [ -95.501853, 29.783908 ], [ -95.501855, 29.783476 ], [ -95.501858, 29.783117 ], [ -95.501859, 29.783065 ], [ -95.502194, 29.782981 ], [ -95.50269, 29.782857 ], [ -95.503161, 29.782738 ], [ -95.503361, 29.782688 ], [ -95.503595, 29.782631 ], [ -95.504872, 29.782322 ], [ -95.50617, 29.782104 ], [ -95.506084, 29.781963 ], [ -95.505881, 29.781608 ], [ -95.50583, 29.78142 ], [ -95.505817, 29.781239 ], [ -95.505809, 29.779697 ], [ -95.505794, 29.779111 ], [ -95.505797, 29.778953 ], [ -95.505778, 29.777858 ], [ -95.505775, 29.777685 ], [ -95.506235, 29.777677 ], [ -95.506949, 29.777674 ], [ -95.508609, 29.777671 ], [ -95.50889, 29.777667 ], [ -95.509885, 29.77766 ], [ -95.51157, 29.777642 ], [ -95.512961, 29.777636 ], [ -95.51329, 29.777632 ], [ -95.51344, 29.777632 ], [ -95.513586, 29.777628 ], [ -95.514004, 29.777625 ], [ -95.514569, 29.777632 ], [ -95.515115, 29.777633 ], [ -95.51627, 29.777624 ], [ -95.517564, 29.777627 ], [ -95.517647, 29.777592 ], [ -95.517659, 29.77751 ], [ -95.517668, 29.777167 ], [ -95.517683, 29.776904 ], [ -95.517713, 29.776381 ], [ -95.517723, 29.775682 ], [ -95.517725, 29.775558 ], [ -95.517759, 29.774445 ], [ -95.517759, 29.774154 ], [ -95.517775, 29.773345 ], [ -95.519112, 29.77334 ], [ -95.520165, 29.77334 ], [ -95.52032, 29.773341 ], [ -95.521236, 29.773322 ], [ -95.522443, 29.773328 ], [ -95.522645, 29.773329 ], [ -95.523279, 29.773319 ], [ -95.523421, 29.774031 ], [ -95.52393, 29.774037 ], [ -95.524122, 29.774029 ], [ -95.524421, 29.776929 ], [ -95.525453, 29.777021 ], [ -95.525519, 29.777028 ], [ -95.526575, 29.776909 ], [ -95.526674, 29.776909 ], [ -95.526629, 29.773256 ], [ -95.527391, 29.773242 ], [ -95.52806, 29.773241 ], [ -95.528908, 29.773243 ], [ -95.529878, 29.773247 ], [ -95.530593, 29.773235 ], [ -95.531557, 29.773226 ], [ -95.531615, 29.775807 ], [ -95.531616, 29.775887 ], [ -95.531637, 29.777038 ], [ -95.531647, 29.777985 ], [ -95.531683, 29.778681 ], [ -95.531692, 29.778971 ], [ -95.531682, 29.779472 ], [ -95.531699, 29.779905 ], [ -95.531698, 29.78018 ], [ -95.531698, 29.780415 ], [ -95.531711, 29.781391 ], [ -95.531716, 29.781557 ], [ -95.531778, 29.783813 ] ] ] ] } },
{ "type": "Feature", "properties": { "name": "Hilshire Village", "type": "Enclave" }, "geometry": { "type": "MultiPolygon", "coordinates": [ [ [ [ -95.495486, 29.794006 ], [ -95.495484, 29.79408 ], [ -95.495479, 29.79431 ], [ -95.495478, 29.794833 ], [ -95.495437, 29.794833 ], [ -95.495343, 29.794834 ], [ -95.493411, 29.794858 ], [ -95.493281, 29.794859 ], [ -95.493201, 29.79486 ], [ -95.492398, 29.794866 ], [ -95.492194, 29.794872 ], [ -95.491571, 29.794868 ], [ -95.491103, 29.794877 ], [ -95.490797, 29.794881 ], [ -95.489973, 29.794907 ], [ -95.489617, 29.794923 ], [ -95.489195, 29.794956 ], [ -95.488933, 29.794954 ], [ -95.488455, 29.794936 ], [ -95.488015, 29.794944 ], [ -95.487544, 29.794931 ], [ -95.487175, 29.794924 ], [ -95.487153, 29.794924 ], [ -95.484927, 29.79491 ], [ -95.484925, 29.794448 ], [ -95.484926, 29.794141 ], [ -95.484919, 29.792916 ], [ -95.484915, 29.792207 ], [ -95.484908, 29.791604 ], [ -95.484904, 29.790745 ], [ -95.484902, 29.789257 ], [ -95.484897, 29.788258 ], [ -95.484898, 29.788154 ], [ -95.484897, 29.787304 ], [ -95.484897, 29.78704 ], [ -95.484864, 29.786351 ], [ -95.48485, 29.786055 ], [ -95.48482, 29.785346 ], [ -95.48484, 29.784638 ], [ -95.486432, 29.784702 ], [ -95.486583, 29.784906 ], [ -95.486797, 29.785142 ], [ -95.486861, 29.785258 ], [ -95.486842, 29.785357 ], [ -95.486873, 29.785445 ], [ -95.486955, 29.785521 ], [ -95.487106, 29.785582 ], [ -95.487296, 29.785637 ], [ -95.48763, 29.785653 ], [ -95.487713, 29.785683 ], [ -95.487812, 29.785719 ], [ -95.488014, 29.785862 ], [ -95.488077, 29.785917 ], [ -95.488128, 29.785977 ], [ -95.488153, 29.786054 ], [ -95.488197, 29.786131 ], [ -95.488203, 29.786175 ], [ -95.488241, 29.786219 ], [ -95.488317, 29.78623 ], [ -95.48838, 29.786192 ], [ -95.488455, 29.78617 ], [ -95.488506, 29.786175 ], [ -95.488582, 29.786224 ], [ -95.488664, 29.786334 ], [ -95.488733, 29.786472 ], [ -95.488746, 29.78667 ], [ -95.488859, 29.786791 ], [ -95.48891, 29.786884 ], [ -95.48891, 29.786945 ], [ -95.48896, 29.786983 ], [ -95.489187, 29.786999 ], [ -95.489313, 29.787038 ], [ -95.489345, 29.787087 ], [ -95.48937, 29.78717 ], [ -95.48954, 29.787214 ], [ -95.489647, 29.787208 ], [ -95.489736, 29.787252 ], [ -95.489792, 29.787346 ], [ -95.489862, 29.787494 ], [ -95.490019, 29.787593 ], [ -95.490076, 29.787582 ], [ -95.490265, 29.787477 ], [ -95.490435, 29.787439 ], [ -95.49058, 29.787466 ], [ -95.490637, 29.787538 ], [ -95.490618, 29.787598 ], [ -95.49065, 29.787659 ], [ -95.490744, 29.787686 ], [ -95.490831, 29.787728 ], [ -95.490872, 29.787783 ], [ -95.490902, 29.787779 ], [ -95.490933, 29.787757 ], [ -95.490996, 29.78768 ], [ -95.491085, 29.787664 ], [ -95.491248, 29.787719 ], [ -95.491324, 29.787768 ], [ -95.491343, 29.78784 ], [ -95.491343, 29.787955 ], [ -95.491324, 29.788175 ], [ -95.491161, 29.788417 ], [ -95.491079, 29.788516 ], [ -95.491035, 29.788549 ], [ -95.491035, 29.788648 ], [ -95.491098, 29.788741 ], [ -95.491129, 29.788818 ], [ -95.491085, 29.788884 ], [ -95.491003, 29.788912 ], [ -95.490959, 29.788939 ], [ -95.490865, 29.789033 ], [ -95.490814, 29.78928 ], [ -95.490767, 29.789382 ], [ -95.490619, 29.789704 ], [ -95.490619, 29.789731 ], [ -95.49067, 29.789863 ], [ -95.490733, 29.789896 ], [ -95.490821, 29.789923 ], [ -95.491313, 29.790237 ], [ -95.491723, 29.790407 ], [ -95.492101, 29.790594 ], [ -95.492284, 29.790786 ], [ -95.492347, 29.790956 ], [ -95.492372, 29.791061 ], [ -95.492379, 29.791176 ], [ -95.492316, 29.791424 ], [ -95.492209, 29.791594 ], [ -95.492158, 29.791715 ], [ -95.492152, 29.791836 ], [ -95.49219, 29.791908 ], [ -95.492316, 29.792067 ], [ -95.49236, 29.792199 ], [ -95.492392, 29.792639 ], [ -95.49243, 29.792666 ], [ -95.492531, 29.792738 ], [ -95.492909, 29.79293 ], [ -95.493704, 29.793595 ], [ -95.493855, 29.79365 ], [ -95.494063, 29.793677 ], [ -95.494782, 29.793726 ], [ -95.495172, 29.793731 ], [ -95.495248, 29.793753 ], [ -95.495317, 29.793786 ], [ -95.495368, 29.793836 ], [ -95.495436, 29.793934 ], [ -95.495487, 29.793962 ], [ -95.495486, 29.794006 ] ] ] ] } },
{ "type": "Feature", "properties": { "name": "Hunters Creek Village", "type": "Enclave" }, "geometry": { "type": "MultiPolygon", "coordinates": [ [ [ [ -95.50889, 29.777667 ], [ -95.508609, 29.777671 ], [ -95.506949, 29.777674 ], [ -95.506235, 29.777677 ], [ -95.505775, 29.777685 ], [ -95.505778, 29.777858 ], [ -95.505797, 29.778953 ], [ -95.505794, 29.779111 ], [ -95.505809, 29.779697 ], [ -95.505817, 29.781239 ], [ -95.50583, 29.78142 ], [ -95.505881, 29.781608 ], [ -95.506084, 29.781963 ], [ -95.50617, 29.782104 ], [ -95.504872, 29.782322 ], [ -95.503595, 29.782631 ], [ -95.503361, 29.782688 ], [ -95.503161, 29.782738 ], [ -95.50269, 29.782857 ], [ -95.502194, 29.782981 ], [ -95.501859, 29.783065 ], [ -95.501858, 29.783117 ], [ -95.501855, 29.783476 ], [ -95.501853, 29.783908 ], [ -95.501849, 29.784012 ], [ -95.501845, 29.784118 ], [ -95.501842, 29.784195 ], [ -95.501839, 29.784277 ], [ -95.501837, 29.784343 ], [ -95.501841, 29.784437 ], [ -95.501842, 29.784476 ], [ -95.501847, 29.784658 ], [ -95.50128, 29.784656 ], [ -95.500529, 29.784619 ], [ -95.499741, 29.784567 ], [ -95.499264, 29.784531 ], [ -95.499039, 29.784513 ], [ -95.498848, 29.784505 ], [ -95.498614, 29.784498 ], [ -95.49847, 29.78449 ], [ -95.497275, 29.784442 ], [ -95.496433, 29.784395 ], [ -95.494415, 29.784313 ], [ -95.488248, 29.784339 ], [ -95.488242, 29.784066 ], [ -95.488237, 29.783848 ], [ -95.48823, 29.783757 ], [ -95.488219, 29.783523 ], [ -95.488241, 29.783524 ], [ -95.488272, 29.782333 ], [ -95.48828, 29.78163 ], [ -95.488282, 29.780975 ], [ -95.488285, 29.780636 ], [ -95.48829, 29.780155 ], [ -95.488234, 29.780155 ], [ -95.488235, 29.780023 ], [ -95.488237, 29.779778 ], [ -95.488243, 29.779222 ], [ -95.488243, 29.7788 ], [ -95.488244, 29.77844 ], [ -95.488244, 29.778208 ], [ -95.488249, 29.777933 ], [ -95.488254, 29.777663 ], [ -95.488254, 29.777603 ], [ -95.488259, 29.777084 ], [ -95.488234, 29.777104 ], [ -95.488169, 29.777142 ], [ -95.488015, 29.777232 ], [ -95.487813, 29.77732 ], [ -95.487468, 29.777398 ], [ -95.48723, 29.777413 ], [ -95.487045, 29.777424 ], [ -95.487059, 29.77728 ], [ -95.487058, 29.776863 ], [ -95.487057, 29.776121 ], [ -95.487057, 29.775828 ], [ -95.487051, 29.775418 ], [ -95.487037, 29.774613 ], [ -95.487031, 29.774268 ], [ -95.487022, 29.773815 ], [ -95.487003, 29.772437 ], [ -95.487, 29.771955 ], [ -95.486998, 29.771249 ], [ -95.486999, 29.770901 ], [ -95.486996, 29.770542 ], [ -95.486982, 29.770444 ], [ -95.48697, 29.770378 ], [ -95.486975, 29.769688 ], [ -95.486975, 29.769616 ], [ -95.487035, 29.769623 ], [ -95.487206, 29.769628 ], [ -95.487385, 29.769638 ], [ -95.487584, 29.769624 ], [ -95.487784, 29.76961 ], [ -95.487801, 29.769607 ], [ -95.487864, 29.769597 ], [ -95.487943, 29.769582 ], [ -95.488022, 29.769567 ], [ -95.488128, 29.769544 ], [ -95.488153, 29.769533 ], [ -95.488189, 29.769513 ], [ -95.488211, 29.769497 ], [ -95.488227, 29.769483 ], [ -95.488244, 29.769465 ], [ -95.488255, 29.769452 ], [ -95.488265, 29.769439 ], [ -95.488232, 29.769325 ], [ -95.487451, 29.768687 ], [ -95.487299, 29.768484 ], [ -95.487243, 29.768187 ], [ -95.487299, 29.767967 ], [ -95.487513, 29.767599 ], [ -95.487822, 29.767214 ], [ -95.488162, 29.76695 ], [ -95.488666, 29.766702 ], [ -95.489044, 29.766592 ], [ -95.489327, 29.766598 ], [ -95.489894, 29.766647 ], [ -95.490493, 29.766784 ], [ -95.490726, 29.7668 ], [ -95.49089, 29.766762 ], [ -95.490997, 29.766679 ], [ -95.491016, 29.766586 ], [ -95.490972, 29.766492 ], [ -95.490165, 29.766064 ], [ -95.489793, 29.7658 ], [ -95.489705, 29.765608 ], [ -95.48961, 29.7653 ], [ -95.489591, 29.765003 ], [ -95.489635, 29.764855 ], [ -95.489686, 29.764822 ], [ -95.48978, 29.764789 ], [ -95.4899, 29.764788 ], [ -95.490114, 29.764854 ], [ -95.490417, 29.76514 ], [ -95.490656, 29.765344 ], [ -95.491242, 29.765602 ], [ -95.491847, 29.765618 ], [ -95.492225, 29.765519 ], [ -95.492314, 29.765403 ], [ -95.492345, 29.765321 ], [ -95.492345, 29.765178 ], [ -95.492175, 29.76498 ], [ -95.491872, 29.764793 ], [ -95.491166, 29.764508 ], [ -95.490965, 29.764365 ], [ -95.490851, 29.764161 ], [ -95.490788, 29.764018 ], [ -95.490775, 29.763881 ], [ -95.490781, 29.763716 ], [ -95.490939, 29.763458 ], [ -95.491159, 29.763265 ], [ -95.491544, 29.763023 ], [ -95.491651, 29.763001 ], [ -95.491808, 29.763018 ], [ -95.492079, 29.763105 ], [ -95.492344, 29.763243 ], [ -95.492407, 29.763386 ], [ -95.492288, 29.763825 ], [ -95.492269, 29.764012 ], [ -95.492275, 29.764183 ], [ -95.492395, 29.764359 ], [ -95.492842, 29.764721 ], [ -95.493227, 29.764914 ], [ -95.493586, 29.765018 ], [ -95.493807, 29.765067 ], [ -95.494084, 29.7651 ], [ -95.494437, 29.765073 ], [ -95.494601, 29.76505 ], [ -95.494746, 29.764984 ], [ -95.494846, 29.764891 ], [ -95.494934, 29.764643 ], [ -95.494966, 29.764506 ], [ -95.494978, 29.764363 ], [ -95.495029, 29.764094 ], [ -95.495142, 29.763912 ], [ -95.495457, 29.763648 ], [ -95.495791, 29.763395 ], [ -95.495942, 29.763219 ], [ -95.49603, 29.76295 ], [ -95.495985, 29.762493 ], [ -95.496017, 29.762361 ], [ -95.496118, 29.762191 ], [ -95.496275, 29.762081 ], [ -95.496423, 29.762079 ], [ -95.496466, 29.761937 ], [ -95.496669, 29.761943 ], [ -95.49664, 29.7618 ], [ -95.496766, 29.761652 ], [ -95.496905, 29.761586 ], [ -95.497062, 29.761547 ], [ -95.497239, 29.761564 ], [ -95.497768, 29.761998 ], [ -95.498008, 29.762086 ], [ -95.498178, 29.762113 ], [ -95.498304, 29.762108 ], [ -95.498424, 29.762075 ], [ -95.498531, 29.76203 ], [ -95.498619, 29.761926 ], [ -95.498726, 29.761772 ], [ -95.498808, 29.761409 ], [ -95.498896, 29.761074 ], [ -95.498996, 29.760782 ], [ -95.499204, 29.760524 ], [ -95.499576, 29.760265 ], [ -95.499691, 29.760216 ], [ -95.499771, 29.760183 ], [ -95.499903, 29.760139 ], [ -95.499998, 29.760144 ], [ -95.500114, 29.760116 ], [ -95.500265, 29.760154 ], [ -95.500454, 29.760253 ], [ -95.50048, 29.760275 ], [ -95.500857, 29.760378 ], [ -95.500724, 29.759285 ], [ -95.500668, 29.758646 ], [ -95.500666, 29.758432 ], [ -95.500664, 29.758233 ], [ -95.50069, 29.758084 ], [ -95.500767, 29.757627 ], [ -95.500914, 29.756756 ], [ -95.501103, 29.755688 ], [ -95.501136, 29.754156 ], [ -95.501107, 29.752982 ], [ -95.501107, 29.752965 ], [ -95.50129, 29.752965 ], [ -95.501337, 29.752965 ], [ -95.501945, 29.752964 ], [ -95.502369, 29.752963 ], [ -95.5025, 29.752955 ], [ -95.502594, 29.752949 ], [ -95.503047, 29.752951 ], [ -95.503611, 29.752953 ], [ -95.504171, 29.752951 ], [ -95.504616, 29.752926 ], [ -95.504606, 29.752947 ], [ -95.504584, 29.753047 ], [ -95.504548, 29.753326 ], [ -95.504516, 29.753482 ], [ -95.504459, 29.753628 ], [ -95.504472, 29.753944 ], [ -95.504591, 29.754125 ], [ -95.50473, 29.754224 ], [ -95.504994, 29.754356 ], [ -95.50529, 29.754483 ], [ -95.505498, 29.754549 ], [ -95.506254, 29.754703 ], [ -95.506494, 29.754808 ], [ -95.506607, 29.754879 ], [ -95.506676, 29.754912 ], [ -95.506758, 29.755072 ], [ -95.506777, 29.755138 ], [ -95.506846, 29.755556 ], [ -95.506858, 29.755742 ], [ -95.506849, 29.755788 ], [ -95.506827, 29.755907 ], [ -95.506654, 29.756224 ], [ -95.506638, 29.756254 ], [ -95.506568, 29.756336 ], [ -95.506713, 29.757163 ], [ -95.506828, 29.757839 ], [ -95.50652, 29.760468 ], [ -95.506487, 29.760843 ], [ -95.506455, 29.761116 ], [ -95.506474, 29.761641 ], [ -95.506485, 29.76195 ], [ -95.506484, 29.762588 ], [ -95.507859, 29.76258 ], [ -95.508778, 29.762574 ], [ -95.508777, 29.764461 ], [ -95.508807, 29.765435 ], [ -95.50881, 29.766389 ], [ -95.50882, 29.766923 ], [ -95.508835, 29.767814 ], [ -95.508852, 29.768891 ], [ -95.508846, 29.769485 ], [ -95.508862, 29.76973 ], [ -95.508861, 29.769911 ], [ -95.508851, 29.7704 ], [ -95.508857, 29.771043 ], [ -95.508859, 29.771322 ], [ -95.508861, 29.772175 ], [ -95.508868, 29.772533 ], [ -95.508869, 29.773027 ], [ -95.508882, 29.773897 ], [ -95.508879, 29.774784 ], [ -95.508879, 29.77537 ], [ -95.508879, 29.775609 ], [ -95.508879, 29.777573 ], [ -95.50889, 29.777667 ] ] ] ] } },
{ "type": "Feature", "properties": { "name": "Jacinto City", "type": "Enclave" }, "geometry": { "type": "MultiPolygon", "coordinates": [ [ [ [ -95.259123, 29.773365 ], [ -95.25802, 29.773518 ], [ -95.256601, 29.773704 ], [ -95.256109, 29.77376 ], [ -95.25583, 29.773779 ], [ -95.255759, 29.773784 ], [ -95.255252, 29.773788 ], [ -95.254852, 29.773757 ], [ -95.254497, 29.773718 ], [ -95.254102, 29.773648 ], [ -95.252694, 29.773428 ], [ -95.251897, 29.773354 ], [ -95.251263, 29.773326 ], [ -95.249576, 29.773274 ], [ -95.247722, 29.773321 ], [ -95.24738, 29.773329 ], [ -95.247024, 29.773329 ], [ -95.246881, 29.773329 ], [ -95.245752, 29.77333 ], [ -95.245214, 29.773339 ], [ -95.244853, 29.773345 ], [ -95.244695, 29.77335 ], [ -95.244427, 29.773359 ], [ -95.24368, 29.773412 ], [ -95.242466, 29.773444 ], [ -95.241698, 29.773435 ], [ -95.240466, 29.77346 ], [ -95.239579, 29.773475 ], [ -95.237615, 29.773472 ], [ -95.237108, 29.773467 ], [ -95.236579, 29.773449 ], [ -95.236136, 29.773405 ], [ -95.235634, 29.773323 ], [ -95.234471, 29.773081 ], [ -95.233431, 29.772848 ], [ -95.233028, 29.772761 ], [ -95.232629, 29.772675 ], [ -95.230364, 29.772165 ], [ -95.229292, 29.771946 ], [ -95.228728, 29.771836 ], [ -95.228128, 29.771698 ], [ -95.227812, 29.771629 ], [ -95.227718, 29.771609 ], [ -95.227486, 29.771559 ], [ -95.227498, 29.771169 ], [ -95.227333, 29.770978 ], [ -95.2273, 29.770918 ], [ -95.227064, 29.770404 ], [ -95.227255, 29.769786 ], [ -95.227204, 29.769658 ], [ -95.227191, 29.769554 ], [ -95.227269, 29.769424 ], [ -95.22715, 29.769168 ], [ -95.22684, 29.768924 ], [ -95.226511, 29.768927 ], [ -95.226337, 29.768995 ], [ -95.226095, 29.76923 ], [ -95.225563, 29.769538 ], [ -95.225263, 29.769497 ], [ -95.225204, 29.769121 ], [ -95.225101, 29.768709 ], [ -95.224842, 29.768578 ], [ -95.224394, 29.768552 ], [ -95.224106, 29.768682 ], [ -95.223935, 29.768704 ], [ -95.223834, 29.76854 ], [ -95.22357, 29.76835 ], [ -95.223586, 29.768282 ], [ -95.223611, 29.76818 ], [ -95.22369, 29.767672 ], [ -95.223773, 29.767486 ], [ -95.22395, 29.767091 ], [ -95.223999, 29.766982 ], [ -95.223956, 29.766965 ], [ -95.222605, 29.766424 ], [ -95.222339, 29.766318 ], [ -95.222193, 29.766266 ], [ -95.221983, 29.766204 ], [ -95.221761, 29.766149 ], [ -95.221535, 29.766104 ], [ -95.22125, 29.76606 ], [ -95.220873, 29.766021 ], [ -95.220432, 29.766018 ], [ -95.220436, 29.765911 ], [ -95.220877, 29.765911 ], [ -95.220987, 29.765692 ], [ -95.221555, 29.764545 ], [ -95.222603, 29.764937 ], [ -95.222776, 29.765004 ], [ -95.224095, 29.765534 ], [ -95.224138, 29.765546 ], [ -95.223951, 29.760344 ], [ -95.223929, 29.759483 ], [ -95.223293, 29.7595 ], [ -95.223298, 29.759447 ], [ -95.223319, 29.759447 ], [ -95.22433, 29.759427 ], [ -95.227486, 29.759326 ], [ -95.229374, 29.759301 ], [ -95.231326, 29.759226 ], [ -95.232516, 29.759219 ], [ -95.232966, 29.759139 ], [ -95.233565, 29.759032 ], [ -95.240357, 29.758837 ], [ -95.24198, 29.758791 ], [ -95.243283, 29.759602 ], [ -95.24719, 29.759429 ], [ -95.251507, 29.759678 ], [ -95.251707, 29.759697 ], [ -95.251716, 29.759919 ], [ -95.251845, 29.75995 ], [ -95.251944, 29.759948 ], [ -95.253244, 29.759917 ], [ -95.255864, 29.759891 ], [ -95.255883, 29.760496 ], [ -95.255903, 29.760823 ], [ -95.255963, 29.763756 ], [ -95.255978, 29.764141 ], [ -95.256015, 29.765787 ], [ -95.256069, 29.767714 ], [ -95.256069, 29.767925 ], [ -95.256056, 29.768179 ], [ -95.257881, 29.76847 ], [ -95.258964, 29.768635 ], [ -95.259123, 29.773365 ] ] ] ] } },
{ "type": "Feature", "properties": { "name": "Piney Point Village", "type": "Enclave" }, "geometry": { "type": "MultiPolygon", "coordinates": [ [ [ [ -95.528594, 29.745926 ], [ -95.52841, 29.746074 ], [ -95.528214, 29.746188 ], [ -95.52805, 29.746303 ], [ -95.527936, 29.746418 ], [ -95.527861, 29.74645 ], [ -95.527735, 29.746454 ], [ -95.527565, 29.746442 ], [ -95.527275, 29.746421 ], [ -95.527136, 29.746474 ], [ -95.526982, 29.746534 ], [ -95.526881, 29.746573 ], [ -95.526798, 29.7466 ], [ -95.526578, 29.746668 ], [ -95.526573, 29.746659 ], [ -95.526165, 29.746757 ], [ -95.526106, 29.746843 ], [ -95.526073, 29.746891 ], [ -95.526034, 29.746947 ], [ -95.526005, 29.746989 ], [ -95.52599, 29.747011 ], [ -95.525968, 29.747045 ], [ -95.52594, 29.747086 ], [ -95.525929, 29.747102 ], [ -95.525929, 29.747125 ], [ -95.525933, 29.747161 ], [ -95.525882, 29.747204 ], [ -95.525807, 29.747429 ], [ -95.525781, 29.747605 ], [ -95.525769, 29.748051 ], [ -95.525706, 29.748188 ], [ -95.525833, 29.750282 ], [ -95.525924, 29.751127 ], [ -95.52433, 29.751095 ], [ -95.523692, 29.751093 ], [ -95.52346, 29.751093 ], [ -95.522741, 29.75108 ], [ -95.522778, 29.752405 ], [ -95.522797, 29.754766 ], [ -95.522753, 29.75541 ], [ -95.522668, 29.75671 ], [ -95.522601, 29.757834 ], [ -95.522568, 29.758385 ], [ -95.522546, 29.758751 ], [ -95.522479, 29.75976 ], [ -95.522409, 29.760896 ], [ -95.522381, 29.76153 ], [ -95.522344, 29.761912 ], [ -95.522343, 29.761931 ], [ -95.522303, 29.762538 ], [ -95.522247, 29.76312 ], [ -95.522215, 29.763955 ], [ -95.522221, 29.764488 ], [ -95.522231, 29.764778 ], [ -95.522258, 29.765567 ], [ -95.522281, 29.766563 ], [ -95.522307, 29.767418 ], [ -95.522312, 29.767591 ], [ -95.522339, 29.7687 ], [ -95.522368, 29.769667 ], [ -95.522376, 29.770246 ], [ -95.52238, 29.770355 ], [ -95.522396, 29.770753 ], [ -95.522396, 29.771393 ], [ -95.522396, 29.771412 ], [ -95.522419, 29.771795 ], [ -95.522435, 29.772588 ], [ -95.522432, 29.772792 ], [ -95.522443, 29.773328 ], [ -95.521236, 29.773322 ], [ -95.52032, 29.773341 ], [ -95.520165, 29.77334 ], [ -95.519112, 29.77334 ], [ -95.517775, 29.773345 ], [ -95.517759, 29.774154 ], [ -95.517759, 29.774445 ], [ -95.517725, 29.775558 ], [ -95.517723, 29.775682 ], [ -95.517713, 29.776381 ], [ -95.517683, 29.776904 ], [ -95.517668, 29.777167 ], [ -95.517659, 29.77751 ], [ -95.517647, 29.777592 ], [ -95.517564, 29.777627 ], [ -95.51627, 29.777624 ], [ -95.515115, 29.777633 ], [ -95.514569, 29.777632 ], [ -95.514004, 29.777625 ], [ -95.513586, 29.777628 ], [ -95.51344, 29.777632 ], [ -95.51329, 29.777632 ], [ -95.512961, 29.777636 ], [ -95.51157, 29.777642 ], [ -95.509885, 29.77766 ], [ -95.50889, 29.777667 ], [ -95.508879, 29.777573 ], [ -95.508879, 29.775609 ], [ -95.508879, 29.77537 ], [ -95.508879, 29.774784 ], [ -95.508882, 29.773897 ], [ -95.508869, 29.773027 ], [ -95.508868, 29.772533 ], [ -95.508861, 29.772175 ], [ -95.508859, 29.771322 ], [ -95.508857, 29.771043 ], [ -95.508851, 29.7704 ], [ -95.508861, 29.769911 ], [ -95.508862, 29.76973 ], [ -95.508846, 29.769485 ], [ -95.508852, 29.768891 ], [ -95.508835, 29.767814 ], [ -95.50882, 29.766923 ], [ -95.50881, 29.766389 ], [ -95.508807, 29.765435 ], [ -95.508777, 29.764461 ], [ -95.508778, 29.762574 ], [ -95.507859, 29.76258 ], [ -95.506484, 29.762588 ], [ -95.506485, 29.76195 ], [ -95.506474, 29.761641 ], [ -95.506455, 29.761116 ], [ -95.506487, 29.760843 ], [ -95.50652, 29.760468 ], [ -95.506828, 29.757839 ], [ -95.506713, 29.757163 ], [ -95.506568, 29.756336 ], [ -95.506638, 29.756254 ], [ -95.506654, 29.756224 ], [ -95.506827, 29.755907 ], [ -95.506849, 29.755788 ], [ -95.506858, 29.755742 ], [ -95.506846, 29.755556 ], [ -95.506777, 29.755138 ], [ -95.506758, 29.755072 ], [ -95.506676, 29.754912 ], [ -95.506607, 29.754879 ], [ -95.506494, 29.754808 ], [ -95.506254, 29.754703 ], [ -95.505498, 29.754549 ], [ -95.50529, 29.754483 ], [ -95.504994, 29.754356 ], [ -95.50473, 29.754224 ], [ -95.504591, 29.754125 ], [ -95.504472, 29.753944 ], [ -95.504459, 29.753628 ], [ -95.504516, 29.753482 ], [ -95.504548, 29.753326 ], [ -95.504584, 29.753047 ], [ -95.504606, 29.752947 ], [ -95.504616, 29.752926 ], [ -95.504645, 29.752828 ], [ -95.504664, 29.752643 ], [ -95.504677, 29.752481 ], [ -95.504693, 29.752393 ], [ -95.504718, 29.752311 ], [ -95.504748, 29.752252 ], [ -95.504881, 29.75207 ], [ -95.504958, 29.751999 ], [ -95.505075, 29.751891 ], [ -95.505219, 29.751855 ], [ -95.505286, 29.751868 ], [ -95.505581, 29.751926 ], [ -95.50592, 29.751963 ], [ -95.506101, 29.751978 ], [ -95.506409, 29.752013 ], [ -95.506627, 29.751987 ], [ -95.506769, 29.751972 ], [ -95.507169, 29.751809 ], [ -95.507185, 29.751782 ], [ -95.507262, 29.751675 ], [ -95.507285, 29.751552 ], [ -95.50731, 29.751404 ], [ -95.507316, 29.751365 ], [ -95.507344, 29.751267 ], [ -95.507266, 29.751167 ], [ -95.507248, 29.751144 ], [ -95.507149, 29.751018 ], [ -95.506842, 29.750887 ], [ -95.506595, 29.750771 ], [ -95.506472, 29.750747 ], [ -95.50607, 29.750681 ], [ -95.505636, 29.750562 ], [ -95.505573, 29.750522 ], [ -95.505261, 29.750327 ], [ -95.505261, 29.750228 ], [ -95.505275, 29.7502 ], [ -95.505432, 29.750089 ], [ -95.505557, 29.749927 ], [ -95.505598, 29.749826 ], [ -95.505658, 29.74976 ], [ -95.505651, 29.749692 ], [ -95.505747, 29.749455 ], [ -95.505777, 29.74927 ], [ -95.505791, 29.749202 ], [ -95.505821, 29.749042 ], [ -95.505917, 29.748843 ], [ -95.506152, 29.748554 ], [ -95.506338, 29.748389 ], [ -95.506472, 29.74836 ], [ -95.506559, 29.748341 ], [ -95.506968, 29.748458 ], [ -95.507543, 29.748737 ], [ -95.507576, 29.748754 ], [ -95.507781, 29.748743 ], [ -95.507968, 29.748697 ], [ -95.508003, 29.748685 ], [ -95.508213, 29.748546 ], [ -95.508354, 29.748419 ], [ -95.508389, 29.748362 ], [ -95.508426, 29.748314 ], [ -95.508413, 29.748113 ], [ -95.508346, 29.748078 ], [ -95.508318, 29.748064 ], [ -95.508047, 29.74796 ], [ -95.507828, 29.747922 ], [ -95.507698, 29.747899 ], [ -95.507427, 29.74783 ], [ -95.507331, 29.747821 ], [ -95.50697, 29.747787 ], [ -95.506813, 29.747525 ], [ -95.506712, 29.747226 ], [ -95.506785, 29.747052 ], [ -95.506891, 29.746972 ], [ -95.507125, 29.746784 ], [ -95.507272, 29.746632 ], [ -95.50731, 29.746594 ], [ -95.507578, 29.746369 ], [ -95.507698, 29.74619 ], [ -95.50784, 29.746094 ], [ -95.50789, 29.746096 ], [ -95.507915, 29.746083 ], [ -95.507932, 29.746078 ], [ -95.507977, 29.746071 ], [ -95.508104, 29.746047 ], [ -95.508311, 29.746075 ], [ -95.508416, 29.746105 ], [ -95.508947, 29.746264 ], [ -95.508984, 29.746277 ], [ -95.509051, 29.746303 ], [ -95.509072, 29.746303 ], [ -95.509094, 29.746303 ], [ -95.509125, 29.746301 ], [ -95.509157, 29.746298 ], [ -95.509188, 29.746293 ], [ -95.509219, 29.746287 ], [ -95.50925, 29.74628 ], [ -95.50928, 29.746271 ], [ -95.509309, 29.74626 ], [ -95.509347, 29.746245 ], [ -95.509384, 29.746226 ], [ -95.509419, 29.746206 ], [ -95.509452, 29.746184 ], [ -95.509483, 29.746159 ], [ -95.509512, 29.746133 ], [ -95.509539, 29.746104 ], [ -95.509552, 29.746089 ], [ -95.50957, 29.746067 ], [ -95.509583, 29.746047 ], [ -95.50963, 29.746023 ], [ -95.50968, 29.745997 ], [ -95.50972, 29.745974 ], [ -95.509765, 29.745948 ], [ -95.509809, 29.745921 ], [ -95.509852, 29.745894 ], [ -95.509895, 29.745866 ], [ -95.509939, 29.745835 ], [ -95.509964, 29.745818 ], [ -95.509976, 29.745813 ], [ -95.509999, 29.745801 ], [ -95.51004, 29.745782 ], [ -95.510082, 29.745765 ], [ -95.510125, 29.745749 ], [ -95.510168, 29.745735 ], [ -95.510212, 29.745721 ], [ -95.510256, 29.74571 ], [ -95.510301, 29.745699 ], [ -95.510346, 29.74569 ], [ -95.510392, 29.745682 ], [ -95.510438, 29.745676 ], [ -95.510484, 29.745672 ], [ -95.510507, 29.74567 ], [ -95.51053, 29.74567 ], [ -95.510542, 29.745667 ], [ -95.5106, 29.745666 ], [ -95.510627, 29.745666 ], [ -95.511054, 29.745692 ], [ -95.511065, 29.745694 ], [ -95.511088, 29.745696 ], [ -95.51111, 29.745698 ], [ -95.511133, 29.745699 ], [ -95.511156, 29.7457 ], [ -95.511179, 29.745699 ], [ -95.511201, 29.745698 ], [ -95.511235, 29.745696 ], [ -95.511269, 29.745691 ], [ -95.511302, 29.745685 ], [ -95.511335, 29.745678 ], [ -95.511357, 29.745672 ], [ -95.511378, 29.745665 ], [ -95.511389, 29.745662 ], [ -95.511399, 29.745658 ], [ -95.51142, 29.74565 ], [ -95.51144, 29.745642 ], [ -95.51146, 29.745633 ], [ -95.51148, 29.745623 ], [ -95.511499, 29.745613 ], [ -95.511518, 29.745602 ], [ -95.511536, 29.74559 ], [ -95.511554, 29.745578 ], [ -95.511571, 29.745565 ], [ -95.511588, 29.745552 ], [ -95.511604, 29.745539 ], [ -95.511614, 29.745533 ], [ -95.511635, 29.745521 ], [ -95.511657, 29.745511 ], [ -95.511679, 29.745501 ], [ -95.51171, 29.74549 ], [ -95.511734, 29.745483 ], [ -95.511758, 29.745478 ], [ -95.511783, 29.745473 ], [ -95.511807, 29.745469 ], [ -95.511832, 29.745467 ], [ -95.511857, 29.745466 ], [ -95.511882, 29.745466 ], [ -95.511916, 29.745467 ], [ -95.511941, 29.74547 ], [ -95.511962, 29.745468 ], [ -95.512004, 29.745461 ], [ -95.512045, 29.745451 ], [ -95.51209, 29.745433 ], [ -95.512127, 29.745414 ], [ -95.51215, 29.7454 ], [ -95.512172, 29.745384 ], [ -95.512192, 29.745367 ], [ -95.512212, 29.745349 ], [ -95.512229, 29.745329 ], [ -95.512247, 29.745306 ], [ -95.512256, 29.745292 ], [ -95.512262, 29.745281 ], [ -95.512271, 29.745265 ], [ -95.512414, 29.744867 ], [ -95.512414, 29.744849 ], [ -95.512414, 29.744831 ], [ -95.512413, 29.744814 ], [ -95.512412, 29.744796 ], [ -95.512411, 29.744778 ], [ -95.512409, 29.74476 ], [ -95.512407, 29.744743 ], [ -95.512405, 29.744728 ], [ -95.512402, 29.744707 ], [ -95.5124, 29.744693 ], [ -95.512396, 29.744672 ], [ -95.512392, 29.744655 ], [ -95.512388, 29.744638 ], [ -95.512383, 29.74462 ], [ -95.512379, 29.744605 ], [ -95.512373, 29.744586 ], [ -95.512368, 29.744569 ], [ -95.512362, 29.744554 ], [ -95.512355, 29.744535 ], [ -95.512349, 29.744519 ], [ -95.512335, 29.744485 ], [ -95.512328, 29.744472 ], [ -95.51232, 29.744455 ], [ -95.512312, 29.744439 ], [ -95.512302, 29.744421 ], [ -95.512293, 29.744405 ], [ -95.512284, 29.744389 ], [ -95.512274, 29.744374 ], [ -95.512264, 29.744358 ], [ -95.512241, 29.744324 ], [ -95.512233, 29.744313 ], [ -95.512223, 29.744296 ], [ -95.512214, 29.744279 ], [ -95.512205, 29.744261 ], [ -95.512198, 29.744243 ], [ -95.512192, 29.744224 ], [ -95.512188, 29.744207 ], [ -95.512183, 29.74418 ], [ -95.512181, 29.74416 ], [ -95.51218, 29.744134 ], [ -95.512181, 29.744109 ], [ -95.512184, 29.744089 ], [ -95.512189, 29.744063 ], [ -95.512194, 29.744044 ], [ -95.5122, 29.744025 ], [ -95.512207, 29.744007 ], [ -95.512219, 29.743984 ], [ -95.512238, 29.74396 ], [ -95.512257, 29.743937 ], [ -95.512279, 29.743915 ], [ -95.512301, 29.743894 ], [ -95.512324, 29.743874 ], [ -95.512341, 29.743861 ], [ -95.51235, 29.743854 ], [ -95.512366, 29.743843 ], [ -95.512384, 29.743831 ], [ -95.512406, 29.743818 ], [ -95.512449, 29.743796 ], [ -95.512493, 29.743777 ], [ -95.512539, 29.743761 ], [ -95.51258, 29.743749 ], [ -95.512623, 29.743741 ], [ -95.512666, 29.743734 ], [ -95.512699, 29.743732 ], [ -95.512754, 29.74373 ], [ -95.512786, 29.743731 ], [ -95.51283, 29.743735 ], [ -95.512873, 29.743742 ], [ -95.512982, 29.743762 ], [ -95.513024, 29.743795 ], [ -95.51315, 29.743895 ], [ -95.513401, 29.744178 ], [ -95.513459, 29.744244 ], [ -95.513564, 29.744387 ], [ -95.513609, 29.744449 ], [ -95.513688, 29.744558 ], [ -95.513702, 29.744578 ], [ -95.513718, 29.744596 ], [ -95.513972, 29.744872 ], [ -95.51404, 29.744888 ], [ -95.514343, 29.74496 ], [ -95.514415, 29.744937 ], [ -95.514635, 29.744863 ], [ -95.515082, 29.744583 ], [ -95.515094, 29.744575 ], [ -95.515356, 29.744389 ], [ -95.515415, 29.744354 ], [ -95.515455, 29.744331 ], [ -95.515537, 29.744282 ], [ -95.515743, 29.744023 ], [ -95.515878, 29.74392 ], [ -95.516445, 29.743307 ], [ -95.516459, 29.743304 ], [ -95.516623, 29.743359 ], [ -95.516696, 29.743397 ], [ -95.516805, 29.743453 ], [ -95.516944, 29.743563 ], [ -95.517039, 29.743717 ], [ -95.51707, 29.743837 ], [ -95.517158, 29.743947 ], [ -95.517265, 29.74397 ], [ -95.517372, 29.743959 ], [ -95.517492, 29.743799 ], [ -95.517507, 29.743757 ], [ -95.517607, 29.743731 ], [ -95.517759, 29.743448 ], [ -95.518142, 29.742728 ], [ -95.5183, 29.742625 ], [ -95.518444, 29.742656 ], [ -95.518538, 29.742722 ], [ -95.518595, 29.742788 ], [ -95.518614, 29.742832 ], [ -95.518614, 29.742876 ], [ -95.518714, 29.743129 ], [ -95.518828, 29.743261 ], [ -95.518919, 29.743334 ], [ -95.519027, 29.743243 ], [ -95.519053, 29.743278 ], [ -95.51912, 29.743276 ], [ -95.519772, 29.74325 ], [ -95.520529, 29.742398 ], [ -95.520718, 29.742188 ], [ -95.521784, 29.742057 ], [ -95.522128, 29.742085 ], [ -95.522471, 29.742076 ], [ -95.522902, 29.742117 ], [ -95.523025, 29.742176 ], [ -95.523095, 29.742323 ], [ -95.523113, 29.742546 ], [ -95.523121, 29.742973 ], [ -95.524341, 29.742951 ], [ -95.52495, 29.742944 ], [ -95.525755, 29.742952 ], [ -95.526609, 29.742939 ], [ -95.526614, 29.742977 ], [ -95.526662, 29.74318 ], [ -95.526671, 29.743219 ], [ -95.526747, 29.743312 ], [ -95.527055, 29.743543 ], [ -95.527282, 29.743648 ], [ -95.527325, 29.743673 ], [ -95.527343, 29.743692 ], [ -95.527327, 29.743727 ], [ -95.527303, 29.743781 ], [ -95.527271, 29.743815 ], [ -95.527328, 29.743884 ], [ -95.527412, 29.743917 ], [ -95.527848, 29.744233 ], [ -95.527994, 29.744456 ], [ -95.52805, 29.744593 ], [ -95.528113, 29.744615 ], [ -95.528201, 29.744665 ], [ -95.528315, 29.744808 ], [ -95.528378, 29.744945 ], [ -95.528434, 29.745209 ], [ -95.528434, 29.745368 ], [ -95.528405, 29.745406 ], [ -95.528155, 29.745421 ], [ -95.528177, 29.745572 ], [ -95.528267, 29.745581 ], [ -95.528295, 29.745611 ], [ -95.528556, 29.745886 ], [ -95.528594, 29.745926 ] ] ] ] } }
]
}
